OBJECT_NAME,OBJECT_ID,EPOCH,MEAN_MOTION,ECCENTRICITY,INCLINATION,RA_OF_ASC_NODE,ARG_OF_PERICENTER,MEAN_ANOMALY,EPHEMERIS_TYPE,CLASSIFICATION_TYPE,NORAD_CAT_ID,ELEMENT_SET_NO,REV_AT_EPOCH,BSTAR,MEAN_MOTION_DOT,MEAN_MOTION_DDOT
ALOS-2,2014-029A,2026-06-08T13:11:42.167040,14.79472067,.00016718,97.9210,256.8376,90.6305,269.5098,0,U,39766,999,65030,.20114351E-3,.1451E-4,0
KAZEOSAT 2,2014-033A,2026-06-09T21:18:21.264768,14.85459607,.00086137,97.5417,0.8854,354.3232,5.7885,0,U,40010,999,64787,.54171E-5,-.3E-7,0
HODOYOSHI-4,2014-033B,2026-06-09T21:45:29.706048,14.88110479,.00231186,97.5458,346.0812,333.4695,26.5337,0,U,40011,999,64772,.8495076E-4,.733E-5,0
DEIMOS-2,2014-033D,2026-06-09T22:45:39.100608,14.93711621,.00020489,97.5842,35.6915,58.3893,301.7527,0,U,40013,999,63664,.21911632E-3,.2264E-4,0
HODOYOSHI-3,2014-033F,2026-06-09T16:58:57.735552,14.85373392,.00333611,97.6412,324.0497,21.7898,338.4728,0,U,40015,999,64651,.12338258E-3,.1019E-4,0
SPOT 7,2014-034A,2026-06-09T22:07:17.196384,14.60951701,.00011767,98.0628,223.6004,86.6467,273.4869,0,U,40053,999,63607,.64907299E-4,.273E-5,0
SKYSAT-B,2014-037D,2026-06-09T14:15:03.503520,14.88008317,.00044846,98.3834,119.1261,313.3459,46.7381,0,U,40072,999,64483,.14487457E-3,.1268E-4,0
WORLDVIEW-3 (WV-3),2014-048A,2026-06-09T19:44:56.913216,14.85009848,.00015523,97.8566,235.7573,37.0716,323.0606,0,U,40115,999,64081,.90357339E-4,.717E-5,0
GAOFEN-2,2014-049A,2026-06-09T22:43:05.604096,14.80892055,.00058795,98.0110,225.1607,255.8100,104.2459,0,U,40118,999,63816,.11207941E-3,.813E-5,0
YAOGAN-21,2014-053A,2026-06-09T22:49:33.743136,15.26265551,.00098841,97.1484,201.4974,114.1990,246.0284,0,U,40143,999,65385,.23913721E-3,.6137E-4,0
YAOGAN-22,2014-063A,2026-06-09T15:45:33.130080,13.15531021,.00061667,100.7715,311.8051,202.3734,157.7109,0,U,40275,999,55882,.62336044E-4,-.23E-6,0
ASNARO,2014-070A,2026-06-09T23:32:15.383904,15.19324378,.00048212,97.3450,237.2904,187.8411,172.2749,0,U,40298,999,64291,.27230054E-3,.5687E-4,0
YAOGAN-24,2014-072A,2026-06-09T23:09:39.443040,14.76214786,.00126559,98.1478,298.2426,289.4773,70.5068,0,U,40310,999,62265,.12873229E-3,.838E-5,0
CBERS 4,2014-079A,2026-06-09T22:15:45.467712,14.35506657,.00019962,98.3534,217.9868,71.2166,288.9237,0,U,40336,999,60291,-.4794532E-5,-.56E-6,0
YAOGAN-26,2014-088A,2026-06-09T22:54:39.815136,15.47062579,.00065902,97.0645,161.3342,83.3709,276.8292,0,U,40362,999,63658,.52054552E-3,.2632E-3,0
SMAP,2015-003A,2026-06-09T19:58:03.512640,14.63360124,.00012757,98.1275,168.0307,93.5882,266.5466,0,U,40376,999,60654,.85493173E-4,.395E-5,0
KOMPSAT-3A,2015-014A,2026-06-09T21:36:26.713152,15.53661897,.00558887,97.6884,151.7315,200.9398,158.9566,0,U,40536,999,62068,.35211131E-3,.23993E-3,0
SENTINEL-2A,2015-028A,2026-06-09T22:36:24.637248,14.30821713,.0001066,98.5679,235.8963,87.1488,272.9817,0,U,40697,999,57269,.45349978E-4,.75E-6,0
GAOFEN-8,2015-030A,2026-06-09T23:12:45.217728,15.45693955,.00081164,97.6916,353.9061,212.8430,147.2315,0,U,40701,999,61033,.44831081E-3,.21602E-3,0
CARBONITE 1 (CBNT-1),2015-032D,2026-06-09T21:33:36.306432,14.83564001,.00137265,97.6510,339.2708,323.9578,36.0710,0,U,40718,999,58826,.14649407E-3,.1157E-4,0
YAOGAN-27,2015-040A,2026-06-09T23:00:25.058304,13.16067814,.00075357,100.1152,147.6550,228.3124,131.7346,0,U,40878,999,51671,-.72068452E-3,-.316E-5,0
GAOFEN-9 01,2015-047A,2026-06-09T21:50:14.989344,14.82869960,.00278502,97.6278,196.9351,160.9700,199.2561,0,U,40894,999,57911,.11648549E-3,.899E-5,0
YAOGAN-28,2015-064A,2026-06-09T22:04:19.578720,15.27328160,.00099753,97.3061,299.3307,209.4823,150.5855,0,U,41026,999,58957,.2885001E-3,.766E-4,0
YAOGAN-29,2015-069A,2026-06-09T23:00:32.968224,14.83078209,.00028488,98.0035,189.5800,66.5402,293.6110,0,U,41038,999,56955,.37028509E-4,.247E-5,0
KENT RIDGE 1,2015-077B,2026-06-09T02:36:21.593664,15.23082353,.00082474,14.9807,326.0677,124.4283,235.6820,0,U,41167,999,57986,.11853903E-3,.3643E-4,0
GAOFEN-4,2015-083A,2026-06-08T14:20:42.251136,1.00273550,.00041656,0.3341,83.8441,111.8448,22.1741,0,U,41194,999,3844,0,-.319E-5,0
JASON-3,2016-002A,2026-06-09T18:42:14.519808,12.87627834,.00085854,66.0393,141.4093,273.0737,86.9300,0,U,41240,999,48629,.91724498E-4,-.39E-6,0
SENTINEL-3A,2016-011A,2026-06-09T20:28:12.984384,14.26737954,.00013561,98.6249,228.3416,104.0625,256.0706,0,U,41335,999,53701,.51941394E-4,.82E-6,0
ZIYUAN 3-02 (ZY 3-02),2016-033A,2026-06-09T22:55:21.929952,15.21411437,.0011516,97.3836,236.8677,318.6334,41.4029,0,U,41556,999,55688,.22288327E-3,.4941E-4,0
CARTOSAT-2C,2016-040A,2026-06-09T22:44:02.863104,15.19260077,.00100584,97.4489,221.0244,153.5553,206.6197,0,U,41599,999,55261,.18892229E-3,.3919E-4,0
