ALOS-2                  
1 39766U 14029A   26159.54979360  .00001451  00000+0  20114-3 0  9994
2 39766  97.9210 256.8376 0001671  90.6305 269.5098 14.79472067650306
KAZEOSAT 2              
1 40010U 14033A   26160.88774612 -.00000003  00000+0  54171-5 0  9990
2 40010  97.5417   0.8854 0008613 354.3232   5.7885 14.85459607647879
HODOYOSHI-4             
1 40011U 14033B   26160.90659382  .00000733  00000+0  84951-4 0  9997
2 40011  97.5458 346.0812 0023118 333.4695  26.5337 14.88110479647723
DEIMOS-2                
1 40013U 14033D   26160.94836922  .00002264  00000+0  21912-3 0  9998
2 40013  97.5842  35.6915 0002048  58.3893 301.7527 14.93711621636649
HODOYOSHI-3             
1 40015U 14033F   26160.70761268  .00001019  00000+0  12338-3 0  9993
2 40015  97.6412 324.0497 0033361  21.7898 338.4728 14.85373392646513
SPOT 7                  
1 40053U 14034A   26160.92172681  .00000273  00000+0  64907-4 0  9996
2 40053  98.0628 223.6004 0001176  86.6467 273.4869 14.60951701636071
SKYSAT-B                
1 40072U 14037D   26160.59379055  .00001268  00000+0  14487-3 0  9999
2 40072  98.3834 119.1261 0004484 313.3459  46.7381 14.88008317644833
WORLDVIEW-3 (WV-3)      
1 40115U 14048A   26160.82288094  .00000717  00000+0  90357-4 0  9996
2 40115  97.8566 235.7573 0001552  37.0716 323.0606 14.85009848640819
GAOFEN-2                
1 40118U 14049A   26160.94659264  .00000813  00000+0  11208-3 0  9998
2 40118  98.0110 225.1607 0005879 255.8100 104.2459 14.80892055638169
YAOGAN-21               
1 40143U 14053A   26160.95108499  .00006137  00000+0  23914-3 0  9993
2 40143  97.1484 201.4974 0009884 114.1990 246.0284 15.26265551653859
YAOGAN-22               
1 40275U 14063A   26160.65663345 -.00000023  00000+0  62336-4 0  9994
2 40275 100.7715 311.8051 0006166 202.3734 157.7109 13.15531021558820
ASNARO                  
1 40298U 14070A   26160.98073361  .00005687  00000+0  27230-3 0  9999
2 40298  97.3450 237.2904 0004821 187.8411 172.2749 15.19324378642912
YAOGAN-24               
1 40310U 14072A   26160.96503985  .00000838  00000+0  12873-3 0  9994
2 40310  98.1478 298.2426 0012655 289.4773  70.5068 14.76214786622652
CBERS 4                 
1 40336U 14079A   26160.92760958 -.00000056  00000+0 -47945-5 0  9994
2 40336  98.3534 217.9868 0001996  71.2166 288.9237 14.35506657602918
YAOGAN-26               
1 40362U 14088A   26160.95462749  .00026320  00000+0  52055-3 0  9999
2 40362  97.0645 161.3342 0006590  83.3709 276.8292 15.47062579636588
SMAP                    
1 40376U 15003A   26160.83198510  .00000395  00000+0  85493-4 0  9998
2 40376  98.1275 168.0307 0001275  93.5882 266.5466 14.63360124606545
KOMPSAT-3A              
1 40536U 15014A   26160.90030918  .00023993  00000+0  35211-3 0  9994
2 40536  97.6884 151.7315 0055888 200.9398 158.9566 15.53661897620683
SENTINEL-2A             
1 40697U 15028A   26160.94195182  .00000075  00000+0  45350-4 0  9998
2 40697  98.5679 235.8963 0001066  87.1488 272.9817 14.30821713572692
GAOFEN-8                
1 40701U 15030A   26160.96719002  .00021602  00000+0  44831-3 0  9993
2 40701  97.6916 353.9061 0008116 212.8430 147.2315 15.45693955610333
CARBONITE 1 (CBNT-1)    
1 40718U 15032D   26160.89833688  .00001157  00000+0  14649-3 0  9999
2 40718  97.6510 339.2708 0013726 323.9578  36.0710 14.83564001588266
YAOGAN-27               
1 40878U 15040A   26160.95862336 -.00000316  00000+0 -72068-3 0  9991
2 40878 100.1152 147.6550 0007535 228.3124 131.7346 13.16067814516711
GAOFEN-9 01             
1 40894U 15047A   26160.90989571  .00000899  00000+0  11649-3 0  9994
2 40894  97.6278 196.9351 0027850 160.9700 199.2561 14.82869960579114
YAOGAN-28               
1 41026U 15064A   26160.91967105  .00007660  00000+0  28850-3 0  9996
2 41026  97.3061 299.3307 0009975 209.4823 150.5855 15.27328160589570
YAOGAN-29               
1 41038U 15069A   26160.95871491  .00000247  00000+0  37029-4 0  9993
2 41038  98.0035 189.5800 0002848  66.5402 293.6110 14.83078209569553
KENT RIDGE 1            
1 41167U 15077B   26160.10858326  .00003643  00000+0  11854-3 0  9994
2 41167  14.9807 326.0677 0008247 124.4283 235.6820 15.23082353579869
GAOFEN-4                
1 41194U 15083A   26159.59771124 -.00000319  00000+0  00000+0 0  9997
2 41194   0.3341  83.8441 0004165 111.8448  22.1741  1.00273550 38442
JASON-3                 
1 41240U 16002A   26160.77933472 -.00000039  00000+0  91724-4 0  9996
2 41240  66.0393 141.4093 0008585 273.0737  86.9300 12.87627834486290
SENTINEL-3A             
1 41335U 16011A   26160.85292806  .00000082  00000+0  51941-4 0  9993
2 41335  98.6249 228.3416 0001356 104.0625 256.0706 14.26737954537015
ZIYUAN 3-02 (ZY 3-02)   
1 41556U 16033A   26160.95511493  .00004941  00000+0  22288-3 0  9998
2 41556  97.3836 236.8677 0011516 318.6334  41.4029 15.21411437556881
CARTOSAT-2C             
1 41599U 16040A   26160.94725536  .00003919  00000+0  18892-3 0  9997
2 41599  97.4489 221.0244 0010058 153.5553 206.6197 15.19260077552615
